[{"OBJECT_NAME":"JY1SAT (JO-97)","OBJECT_ID":"2018-099AX","EPOCH":"2024-10-27T02:15:46.585152","MEAN_MOTION":15.12022683,"ECCENTRICITY":0.0008522,"INCLINATION":97.5038,"RA_OF_ASC_NODE":357.0877,"ARG_OF_PERICENTER":200.7296,"MEAN_ANOMALY":159.359,"EPHEMERIS_TYPE":0,"CLASSIFICATION_TYPE":"U","NORAD_CAT_ID":43803,"ELEMENT_SET_NO":999,"REV_AT_EPOCH":32259,"BSTAR":0.0018213,"MEAN_MOTION_DOT":0.00031362,"MEAN_MOTION_DDOT":0},{"OBJECT_NAME":"UWE-4","OBJECT_ID":"2018-111E","EPOCH":"2024-10-27T04:15:07.115616","MEAN_MOTION":15.14933041,"ECCENTRICITY":0.0012476,"INCLINATION":97.5981,"RA_OF_ASC_NODE":206.2712,"ARG_OF_PERICENTER":278.8628,"MEAN_ANOMALY":81.1191,"EPHEMERIS_TYPE":0,"CLASSIFICATION_TYPE":"U","NORAD_CAT_ID":43880,"ELEMENT_SET_NO":999,"REV_AT_EPOCH":31737,"BSTAR":0.0018753,"MEAN_MOTION_DOT":0.00035086,"MEAN_MOTION_DDOT":0},{"OBJECT_NAME":"DUCHIFAT-3","OBJECT_ID":"2019-089C","EPOCH":"2024-10-27T10:41:15.638496","MEAN_MOTION":15.24397158,"ECCENTRICITY":0.0009278,"INCLINATION":36.9544,"RA_OF_ASC_NODE":321.8825,"ARG_OF_PERICENTER":149.5167,"MEAN_ANOMALY":210.6124,"EPHEMERIS_TYPE":0,"CLASSIFICATION_TYPE":"U","NORAD_CAT_ID":44854,"ELEMENT_SET_NO":999,"REV_AT_EPOCH":26833,"BSTAR":0.0020582,"MEAN_MOTION_DOT":0.00051956,"MEAN_MOTION_DDOT":0},{"OBJECT_NAME":"TIANYAN 01","OBJECT_ID":"2019-093C","EPOCH":"2024-10-27T11:02:07.542528","MEAN_MOTION":14.84508601,"ECCENTRICITY":0.0012881,"INCLINATION":97.8178,"RA_OF_ASC_NODE":15.6741,"ARG_OF_PERICENTER":247.8349,"MEAN_ANOMALY":112.1498,"EPHEMERIS_TYPE":0,"CLASSIFICATION_TYPE":"U","NORAD_CAT_ID":44881,"ELEMENT_SET_NO":999,"REV_AT_EPOCH":26266,"BSTAR":0.00047729,"MEAN_MOTION_DOT":3.976e-5,"MEAN_MOTION_DDOT":0},{"OBJECT_NAME":"RS-44 & BREEZE-KM R/B","OBJECT_ID":"2019-096E","EPOCH":"2024-10-26T22:12:42.552864","MEAN_MOTION":12.79735257,"ECCENTRICITY":0.0218508,"INCLINATION":82.5265,"RA_OF_ASC_NODE":17.2303,"ARG_OF_PERICENTER":103.1835,"MEAN_ANOMALY":259.3744,"EPHEMERIS_TYPE":0,"CLASSIFICATION_TYPE":"U","NORAD_CAT_ID":44909,"ELEMENT_SET_NO":999,"REV_AT_EPOCH":22582,"BSTAR":1.2916e-5,"MEAN_MOTION_DOT":1.6e-7,"MEAN_MOTION_DDOT":0},{"OBJECT_NAME":"SALSAT","OBJECT_ID":"2020-068K","EPOCH":"2024-10-27T03:19:58.990080","MEAN_MOTION":15.16627532,"ECCENTRICITY":0.0011331,"INCLINATION":97.8326,"RA_OF_ASC_NODE":264.1581,"ARG_OF_PERICENTER":213.2215,"MEAN_ANOMALY":146.8307,"EPHEMERIS_TYPE":0,"CLASSIFICATION_TYPE":"U","NORAD_CAT_ID":46495,"ELEMENT_SET_NO":999,"REV_AT_EPOCH":22428,"BSTAR":0.00096171,"MEAN_MOTION_DOT":0.00018795,"MEAN_MOTION_DDOT":0},{"OBJECT_NAME":"UVSQ-SAT","OBJECT_ID":"2021-006AB","EPOCH":"2024-10-24T02:48:13.144320","MEAN_MOTION":16.20433421,"ECCENTRICITY":0.0006581,"INCLINATION":97.2775,"RA_OF_ASC_NODE":3.3666,"ARG_OF_PERICENTER":273.2868,"MEAN_ANOMALY":86.7668,"EPHEMERIS_TYPE":0,"CLASSIFICATION_TYPE":"U","NORAD_CAT_ID":47438,"ELEMENT_SET_NO":999,"REV_AT_EPOCH":20889,"BSTAR":0.0018855,"MEAN_MOTION_DOT":0.03670113,"MEAN_MOTION_DDOT":2.3594e-6},{"OBJECT_NAME":"LEDSAT","OBJECT_ID":"2021-073D","EPOCH":"2024-10-27T04:12:13.093056","MEAN_MOTION":15.33466145,"ECCENTRICITY":0.0016506,"INCLINATION":97.423,"RA_OF_ASC_NODE":12.0084,"ARG_OF_PERICENTER":173.277,"MEAN_ANOMALY":186.8697,"EPHEMERIS_TYPE":0,"CLASSIFICATION_TYPE":"U","NORAD_CAT_ID":49069,"ELEMENT_SET_NO":999,"REV_AT_EPOCH":17661,"BSTAR":0.0019383,"MEAN_MOTION_DOT":0.00063329,"MEAN_MOTION_DDOT":0},{"OBJECT_NAME":"XW-3 (CAS-9)","OBJECT_ID":"2021-131B","EPOCH":"2024-10-27T12:09:01.750464","MEAN_MOTION":14.40143034,"ECCENTRICITY":0.0005233,"INCLINATION":98.5231,"RA_OF_ASC_NODE":25.9575,"ARG_OF_PERICENTER":93.3039,"MEAN_ANOMALY":266.8748,"EPHEMERIS_TYPE":0,"CLASSIFICATION_TYPE":"U","NORAD_CAT_ID":50466,"ELEMENT_SET_NO":999,"REV_AT_EPOCH":14904,"BSTAR":0.00080385,"MEAN_MOTION_DOT":2.496e-5,"MEAN_MOTION_DDOT":0},{"OBJECT_NAME":"GREENCUBE","OBJECT_ID":"2022-080B","EPOCH":"2024-10-07T23:09:18.716544","MEAN_MOTION":6.42557544,"ECCENTRICITY":0.0008243,"INCLINATION":70.1376,"RA_OF_ASC_NODE":153.3488,"ARG_OF_PERICENTER":81.836,"MEAN_ANOMALY":278.3235,"EPHEMERIS_TYPE":0,"CLASSIFICATION_TYPE":"U","NORAD_CAT_ID":53106,"ELEMENT_SET_NO":999,"REV_AT_EPOCH":5251,"BSTAR":0,"MEAN_MOTION_DOT":-3.0e-8,"MEAN_MOTION_DDOT":0},{"OBJECT_NAME":"CAS-5A (FO-118)","OBJECT_ID":"2022-167C","EPOCH":"2024-10-27T11:27:20.695968","MEAN_MOTION":15.46114916,"ECCENTRICITY":0.000676,"INCLINATION":97.6157,"RA_OF_ASC_NODE":90.8314,"ARG_OF_PERICENTER":25.7778,"MEAN_ANOMALY":334.3806,"EPHEMERIS_TYPE":0,"CLASSIFICATION_TYPE":"U","NORAD_CAT_ID":54684,"ELEMENT_SET_NO":999,"REV_AT_EPOCH":10461,"BSTAR":0.0021961,"MEAN_MOTION_DOT":0.00108895,"MEAN_MOTION_DDOT":0},{"OBJECT_NAME":"STRATOSAT-TK 1 (RS52S)","OBJECT_ID":"2023-091B","EPOCH":"2024-10-27T11:06:27.687744","MEAN_MOTION":15.20141292,"ECCENTRICITY":0.0013497,"INCLINATION":97.5941,"RA_OF_ASC_NODE":354.677,"ARG_OF_PERICENTER":28.3798,"MEAN_ANOMALY":331.8169,"EPHEMERIS_TYPE":0,"CLASSIFICATION_TYPE":"U","NORAD_CAT_ID":57167,"ELEMENT_SET_NO":999,"REV_AT_EPOCH":7359,"BSTAR":0.002282,"MEAN_MOTION_DOT":0.00049692,"MEAN_MOTION_DDOT":0},{"OBJECT_NAME":"UMKA 1 (RS40S)","OBJECT_ID":"2023-091G","EPOCH":"2024-10-26T23:25:09.264288","MEAN_MOTION":15.10446798,"ECCENTRICITY":0.0016633,"INCLINATION":97.5952,"RA_OF_ASC_NODE":351.8057,"ARG_OF_PERICENTER":35.8677,"MEAN_ANOMALY":324.3666,"EPHEMERIS_TYPE":0,"CLASSIFICATION_TYPE":"U","NORAD_CAT_ID":57172,"ELEMENT_SET_NO":999,"REV_AT_EPOCH":7336,"BSTAR":0.00095727,"MEAN_MOTION_DOT":0.00015754,"MEAN_MOTION_DDOT":0},{"OBJECT_NAME":"CUBESX-HSE 3 (RS42S)","OBJECT_ID":"2023-091N","EPOCH":"2024-10-27T11:53:14.228448","MEAN_MOTION":15.13085428,"ECCENTRICITY":0.0016409,"INCLINATION":97.5991,"RA_OF_ASC_NODE":353.1878,"ARG_OF_PERICENTER":27.2505,"MEAN_ANOMALY":332.9584,"EPHEMERIS_TYPE":0,"CLASSIFICATION_TYPE":"U","NORAD_CAT_ID":57178,"ELEMENT_SET_NO":999,"REV_AT_EPOCH":7348,"BSTAR":0.0014377,"MEAN_MOTION_DOT":0.00025526,"MEAN_MOTION_DDOT":0},{"OBJECT_NAME":"MONITOR-4 (RS57S)","OBJECT_ID":"2023-091S","EPOCH":"2024-10-27T11:16:36.690240","MEAN_MOTION":15.12280285,"ECCENTRICITY":0.0017027,"INCLINATION":97.598,"RA_OF_ASC_NODE":352.8405,"ARG_OF_PERICENTER":29.4045,"MEAN_ANOMALY":330.814,"EPHEMERIS_TYPE":0,"CLASSIFICATION_TYPE":"U","NORAD_CAT_ID":57182,"ELEMENT_SET_NO":999,"REV_AT_EPOCH":7346,"BSTAR":0.0013038,"MEAN_MOTION_DOT":0.00022625,"MEAN_MOTION_DDOT":0},{"OBJECT_NAME":"MONITOR-2 (RS39S)","OBJECT_ID":"2023-091U","EPOCH":"2024-10-27T09:48:54.112896","MEAN_MOTION":15.10169974,"ECCENTRICITY":0.0014162,"INCLINATION":97.5989,"RA_OF_ASC_NODE":352.6505,"ARG_OF_PERICENTER":25.9524,"MEAN_ANOMALY":334.2412,"EPHEMERIS_TYPE":0,"CLASSIFICATION_TYPE":"U","NORAD_CAT_ID":57184,"ELEMENT_SET_NO":999,"REV_AT_EPOCH":7344,"BSTAR":0.000952,"MEAN_MOTION_DOT":0.00015533,"MEAN_MOTION_DDOT":0},{"OBJECT_NAME":"SVYATOBOR 1 (RS60S)","OBJECT_ID":"2023-091X","EPOCH":"2024-10-27T12:35:17.723616","MEAN_MOTION":15.12734349,"ECCENTRICITY":0.0013113,"INCLINATION":97.5987,"RA_OF_ASC_NODE":353.5792,"ARG_OF_PERICENTER":21.2007,"MEAN_ANOMALY":338.9764,"EPHEMERIS_TYPE":0,"CLASSIFICATION_TYPE":"U","NORAD_CAT_ID":57187,"ELEMENT_SET_NO":999,"REV_AT_EPOCH":7351,"BSTAR":0.0012335,"MEAN_MOTION_DOT":0.0002164,"MEAN_MOTION_DDOT":0}]
