JY1SAT (JO-97)          
1 43803U 18099AX  24301.09428918  .00031362  00000+0  18213-2 0  9997
2 43803  97.5038 357.0877 0008522 200.7296 159.3590 15.12022683322595
UWE-4                   
1 43880U 18111E   24301.17716569  .00035086  00000+0  18753-2 0  9994
2 43880  97.5981 206.2712 0012476 278.8628  81.1191 15.14933041317378
DUCHIFAT-3              
1 44854U 19089C   24301.44531989  .00051956  00000+0  20582-2 0  9999
2 44854  36.9544 321.8825 0009278 149.5167 210.6124 15.24397158268339
TIANYAN 01              
1 44881U 19093C   24301.45980952  .00003976  00000+0  47729-3 0  9995
2 44881  97.8178  15.6741 0012881 247.8349 112.1498 14.84508601262663
RS-44 & BREEZE-KM R/B   
1 44909U 19096E   24300.92549251  .00000016  00000+0  12916-4 0  9996
2 44909  82.5265  17.2303 0218508 103.1835 259.3744 12.79735257225828
SALSAT                  
1 46495U 20068K   24301.13887720  .00018795  00000+0  96171-3 0  9996
2 46495  97.8326 264.1581 0011331 213.2215 146.8307 15.16627532224282
UVSQ-SAT                
1 47438U 21006AB  24298.11681880  .03670113  23594-5  18855-2 0  9991
2 47438  97.2775   3.3666 0006581 273.2868  86.7668 16.20433421208899
LEDSAT                  
1 49069U 21073D   24301.17515154  .00063329  00000+0  19383-2 0  9998
2 49069  97.4230  12.0084 0016506 173.2770 186.8697 15.33466145176619
XW-3 (CAS-9)            
1 50466U 21131B   24301.50627026  .00002496  00000+0  80385-3 0  9994
2 50466  98.5231  25.9575 0005233  93.3039 266.8748 14.40143034149047
GREENCUBE               
1 53106U 22080B   24281.96479996 -.00000003  00000+0  00000+0 0  9995
2 53106  70.1376 153.3488 0008243  81.8360 278.3235  6.42557544 52511
CAS-5A (FO-118)         
1 54684U 22167C   24301.47732287  .00108895  00000+0  21961-2 0  9996
2 54684  97.6157  90.8314 0006760  25.7778 334.3806 15.46114916104611
STRATOSAT-TK 1 (RS52S)  
1 57167U 23091B   24301.46282046  .00049692  00000+0  22820-2 0  9998
2 57167  97.5941 354.6770 0013497  28.3798 331.8169 15.20141292 73598
UMKA 1 (RS40S)          
1 57172U 23091G   24300.97580167  .00015754  00000+0  95727-3 0  9993
2 57172  97.5952 351.8057 0016633  35.8677 324.3666 15.10446798 73369
CUBESX-HSE 3 (RS42S)    
1 57178U 23091N   24301.49530357  .00025526  00000+0  14377-2 0  9992
2 57178  97.5991 353.1878 0016409  27.2505 332.9584 15.13085428 73489
MONITOR-4 (RS57S)       
1 57182U 23091S   24301.46986910  .00022625  00000+0  13038-2 0  9994
2 57182  97.5980 352.8405 0017027  29.4045 330.8140 15.12280285 73464
MONITOR-2 (RS39S)       
1 57184U 23091U   24301.40895964  .00015533  00000+0  95200-3 0  9990
2 57184  97.5989 352.6505 0014162  25.9524 334.2412 15.10169974 73441
SVYATOBOR 1 (RS60S)     
1 57187U 23091X   24301.52451069  .00021640  00000+0  12335-2 0  9993
2 57187  97.5987 353.5792 0013113  21.2007 338.9764 15.12734349 73515
